IRIDIUM 119             
1 42959U 17061E   25337.42600738  .00000486  00000+0  16632-3 0  9992
2 42959  86.3960 107.1082 0001763  89.4073 270.7325 14.34217812426753
IRIDIUM 107             
1 42960U 17061F   25337.37526162  .00000005  00000+0 -54360-5 0  9996
2 42960  86.3959 107.1496 0001606 106.4008 253.7365 14.34217543426752
IRIDIUM 132             
1 42961U 17061G   25337.45137336  .00000040  00000+0  72623-5 0  9997
2 42961  86.3960 107.0986 0001928  97.1570 262.9845 14.34217650426760
IRIDIUM 136             
1 42962U 17061H   25337.41331656  .00000134  00000+0  40614-4 0  9993
2 42962  86.3961 107.1202 0001895  94.6469 265.4943 14.34218717426779
IRIDIUM 139             
1 42963U 17061J   25337.41966037  .00000057  00000+0  13298-4 0  9993
2 42963  86.3962 107.1763 0001947  99.8996 260.2420 14.34217980426788
IRIDIUM 125             
1 42964U 17061K   25337.40696872  .00000098  00000+0  28079-4 0  9998
2 42964  86.3966 107.2395 0001335 100.4098 259.7248 14.34214930426792
IRIDIUM 135             
1 43070U 17083A   25337.24156532 -.00000148  00000+0 -59864-4 0  9991
2 43070  86.3974  43.9147 0002091  94.8638 265.2796 14.34218113416063
IRIDIUM 138             
1 43071U 17083B   25337.47624020 -.00000261  00000+0 -10035-3 0  9991
2 43071  86.3990  43.4819 0001765  84.7646 275.3751 14.34217518416080
